NORAD_CAT_ID,OBJECT_NAME,OBJECT_TYPE,EPOCH,MEAN_MOTION,ECCENTRICITY,INCLINATION,RA_OF_ASC_NODE,ARG_OF_PERICENTER,MEAN_ANOMALY,BSTAR,MEAN_MOTION_DOT,MEAN_MOTION_DDOT,TLE_LINE0,TLE_LINE1,TLE_LINE2,SEMIMAJOR_AXIS,PERIOD,APOGEE,PERIGEE,DECAYED
49171.0,STARLINK-3107,PAYLOAD,2023-02-06 21:11:21,14.9833521,0.0002659,70.0003,255.5229,267.0025,93.083,0.00012031,1.343e-05,0.0,0 STARLINK-3107,1 49171U 21082AT  23037.88288763  .00001343  00000-0  12031-3 0  9991,2 49171  70.0003 255.5229 0002659 267.0025  93.0830 14.98335210 78350,6950.177,96.107,573.89,570.194,0.0
49171.0,STARLINK-3107,PAYLOAD,2023-02-07 00:23:37,14.98337669,0.0002654,70.0003,255.1861,267.0541,93.0314,0.00014523,1.641e-05,0.0,0 STARLINK-3107,1 49171U 21082AT  23038.01640534  .00001641  00000-0  14523-3 0  9994,2 49171  70.0003 255.1861 0002654 267.0541  93.0314 14.98337669 78375,6950.169,96.107,573.879,570.19,0.0
49171.0,STARLINK-3107,PAYLOAD,2023-02-07 21:13:22,14.98334371,0.0002617,70.0005,252.9977,268.3821,91.7038,0.00010345,1.142e-05,0.0,0 STARLINK-3107,1 49171U 21082AT  23038.88428757  .00001142  00000-0  10345-3 0  9994,2 49171  70.0005 252.9977 0002617 268.3821  91.7038 14.98334371 78504,6950.179,96.107,573.863,570.226,0.0
49171.0,STARLINK-3107,PAYLOAD,2023-02-07 22:49:30,14.98334291,0.000262,70.0005,252.8294,268.455,91.6309,0.00010048,1.106e-05,0.0,0 STARLINK-3107,1 49171U 21082AT  23038.95104755  .00001106  00000-0  10048-3 0  9991,2 49171  70.0005 252.8294 0002620 268.4550  91.6309 14.98334291 78511,6950.18,96.107,573.866,570.224,0.0
49171.0,STARLINK-3107,PAYLOAD,2023-02-08 19:39:15,14.98330888,0.0002629,70.0008,250.6409,271.2243,88.8615,-1.1408e-05,-2.29e-06,0.0,0 STARLINK-3107,1 49171U 21082AT  23039.81893101 -.00000229  00000-0 -11408-4 0  9996,2 49171  70.0008 250.6409 0002629 271.2243  88.8615 14.98330888 78648,6950.19,96.107,573.882,570.228,0.0
49171.0,STARLINK-3107,PAYLOAD,2023-02-08 21:15:23,14.98331636,0.0002631,70.0008,250.4726,271.2039,88.8819,-3.2817e-06,-1.32e-06,0.0,0 STARLINK-3107,1 49171U 21082AT  23039.88569051 -.00000132  00000-0 -32817-5 0  9998,2 49171  70.0008 250.4726 0002631 271.2039  88.8819 14.98331636 78653,6950.188,96.107,573.881,570.224,0.0
49171.0,STARLINK-3107,PAYLOAD,2023-02-09 00:27:39,14.98334462,0.000264,70.0008,250.1359,271.3026,88.7831,2.5158e-05,2.07e-06,0.0,0 STARLINK-3107,1 49171U 21082AT  23040.01920763  .00000207  00000-0  25158-4 0  9996,2 49171  70.0008 250.1359 0002640 271.3026  88.7831 14.98334462 78674,6950.179,96.107,573.879,570.209,0.0
49171.0,STARLINK-3107,PAYLOAD,2023-02-09 19:41:16,14.98331538,0.0002687,70.001,248.1161,273.0467,87.0385,2.5136e-05,2.07e-06,0.0,0 STARLINK-3107,1 49171U 21082AT  23040.82032934  .00000207  00000-0  25136-4 0  9995,2 49171  70.0010 248.1161 0002687 273.0467  87.0385 14.98331538 78794,6950.188,96.107,573.921,570.186,0.0
49171.0,STARLINK-3107,PAYLOAD,2023-02-09 21:17:24,14.98332114,0.000269,70.0009,247.9478,272.4628,87.6223,2.8743e-05,2.5e-06,0.0,0 STARLINK-3107,1 49171U 21082AT  23040.88708873  .00000250  00000-0  28743-4 0  9998,2 49171  70.0009 247.9478 0002690 272.4628  87.6223 14.98332114 78806,6950.186,96.107,573.921,570.182,0.0
49171.0,STARLINK-3107,PAYLOAD,2023-02-10 19:43:17,14.98332157,0.0002706,70.0007,245.5906,267.0426,93.0423,8.4714e-05,9.18e-06,0.0,0 STARLINK-3107,1 49171U 21082AT  23041.82172699  .00000918  00000-0  84714-4 0  9995,2 49171  70.0007 245.5906 0002706 267.0426  93.0423 14.98332157 78943,6950.186,96.107,573.932,570.171,0.0
49171.0,STARLINK-3107,PAYLOAD,2023-02-10 21:19:25,14.98332742,0.0002712,70.0008,245.4222,267.251,92.8339,9.022e-05,9.84e-06,0.0,0 STARLINK-3107,1 49171U 21082AT  23041.88848655  .00000984  00000-0  90220-4 0  9995,2 49171  70.0008 245.4222 0002712 267.2510  92.8339 14.98332742 78951,6950.184,96.107,573.934,570.165,0.0
49171.0,STARLINK-3107,PAYLOAD,2023-02-10 22:55:33,14.98333446,0.000271,70.0008,245.2539,267.6236,92.4613,9.654e-05,1.059e-05,0.0,0 STARLINK-3107,1 49171U 21082AT  23041.95524582  .00001059  00000-0  96540-4 0  9998,2 49171  70.0008 245.2539 0002710 267.6236  92.4613 14.98333446 78961,6950.182,96.107,573.931,570.164,0.0
49171.0,STARLINK-3107,PAYLOAD,2023-02-11 19:45:18,14.98328405,0.0002604,70.0012,243.066,267.2561,92.83,3.1839e-05,2.87e-06,0.0,0 STARLINK-3107,1 49171U 21082AT  23042.82313149  .00000287  00000-0  31839-4 0  9992,2 49171  70.0012 243.0660 0002604 267.2561  92.8300 14.98328405 79097,6950.198,96.107,573.873,570.253,0.0
49171.0,STARLINK-3107,PAYLOAD,2023-02-12 06:58:14,14.98330429,0.0002539,70.0019,241.8883,267.0108,93.076,3.5718e-05,3.33e-06,0.0,0 STARLINK-3107,1 49171U 21082AT  23043.29045097  .00000333  00000-0  35718-4 0  9990,2 49171  70.0019 241.8883 0002539 267.0108  93.0760 14.98330429 79169,6950.192,96.107,573.821,570.292,0.0
49171.0,STARLINK-3107,PAYLOAD,2023-02-12 19:47:19,14.9833515,0.0002685,70.0017,240.5426,268.8238,91.2613,7.8263e-05,8.41e-06,0.0,0 STARLINK-3107,1 49171U 21082AT  23043.82452668  .00000841  00000-0  78263-4 0  9991,2 49171  70.0017 240.5426 0002685 268.8238  91.2613 14.98335150 79243,6950.177,96.107,573.908,570.176,0.0
49171.0,STARLINK-3107,PAYLOAD,2023-02-13 13:24:47,14.98334012,0.0002821,70.0017,238.6915,269.3463,90.7373,0.00012831,1.438e-05,0.0,0 STARLINK-3107,1 49171U 21082AT  23044.55888560  .00001438  00000-0  12831-3 0  9997,2 49171  70.0017 238.6915 0002821 269.3463  90.7373 14.98334012 79357,6950.18,96.107,574.006,570.085,0.0
49171.0,STARLINK-3107,PAYLOAD,2023-02-13 19:49:19,14.98335058,0.0002791,70.0017,238.0183,269.278,90.8059,0.0001353,1.522e-05,0.0,0 STARLINK-3107,1 49171U 21082AT  23044.82592445  .00001522  00000-0  13530-3 0  9992,2 49171  70.0017 238.0183 0002791 269.2780  90.8059 14.98335058 79392,6950.177,96.107,573.982,570.102,0.0
49171.0,STARLINK-3107,PAYLOAD,2023-02-14 11:50:40,14.9833279,0.00027,70.0019,236.3352,269.9028,90.1822,4.3361e-05,4.25e-06,0.0,0 STARLINK-3107,1 49171U 21082AT  23045.49352713  .00000425  00000-0  43361-4 0  9995,2 49171  70.0019 236.3352 0002700 269.9028  90.1822 14.98332790 79497,6950.184,96.107,573.926,570.173,0.0
49171.0,STARLINK-3107,PAYLOAD,2023-02-15 11:52:41,14.98334241,0.0002669,70.0014,233.8106,269.0295,91.0558,3.5824e-05,3.35e-06,0.0,0 STARLINK-3107,1 49171U 21082AT  23046.49492475  .00000335  00000-0  35824-4 0  9991,2 49171  70.0014 233.8106 0002669 269.0295  91.0558 14.98334241 79648,6950.18,96.107,573.9,570.19,0.0
49171.0,STARLINK-3107,PAYLOAD,2023-02-15 13:28:49,14.98334484,0.0002678,70.0014,233.6423,268.8758,91.2094,3.704e-05,3.49e-06,0.0,0 STARLINK-3107,1 49171U 21082AT  23046.56168425  .00000349  00000-0  37040-4 0  9991,2 49171  70.0014 233.6423 0002678 268.8758  91.2094 14.98334484 79656,6950.179,96.107,573.905,570.183,0.0
49171.0,STARLINK-3107,PAYLOAD,2023-02-15 21:29:29,14.98335809,0.0002635,70.0011,232.8005,270.1268,89.9589,4.812e-05,4.81e-06,0.0,0 STARLINK-3107,1 49171U 21082AT  23046.89548270  .00000481  00000-0  48120-4 0  9995,2 49171  70.0011 232.8005 0002635 270.1268  89.9589 14.98335809 79706,6950.175,96.107,573.871,570.209,0.0
49171.0,STARLINK-3107,PAYLOAD,2023-02-16 13:30:50,14.98332103,0.0002707,69.9998,231.1171,271.3149,88.77,7.7909e-05,8.37e-06,0.0,0 STARLINK-3107,1 49171U 21082AT  23047.56308322  .00000837  00000-0  77909-4 0  9994,2 49171  69.9998 231.1171 0002707 271.3149  88.7700 14.98332103 79801,6950.186,96.107,573.933,570.17,0.0
49171.0,STARLINK-3107,PAYLOAD,2023-02-16 21:31:32,14.98311784,0.0002829,70.0005,230.2758,268.7162,91.3672,-0.00013727,-1.73e-05,0.0,0 STARLINK-3107,1 49171U 21082AT  23047.89690287 -.00001730  00000-0 -13727-3 0  9996,2 49171  70.0005 230.2758 0002829 268.7162  91.3672 14.98311784 79859,6950.249,96.108,574.08,570.148,0.0
49171.0,STARLINK-3107,PAYLOAD,2023-02-17 11:56:45,14.98314724,0.0002833,70.001,228.7613,268.6206,91.4629,-0.00010789,-1.379e-05,0.0,0 STARLINK-3107,1 49171U 21082AT  23048.49774655 -.00001379  00000-0 -10789-3 0  9999,2 49171  70.0010 228.7613 0002833 268.6206  91.4629 14.98314724 79940,6950.24,96.108,574.074,570.136,0.0
49171.0,STARLINK-3107,PAYLOAD,2023-02-17 18:21:17,14.98318341,0.0002824,70.0011,228.0879,268.3306,91.7529,-5.5027e-05,-7.49e-06,0.0,0 STARLINK-3107,1 49171U 21082AT  23048.76478544 -.00000749  00000-0 -55027-4 0  9992,2 49171  70.0011 228.0879 0002824 268.3306  91.7529 14.98318341 79981,6950.229,96.108,574.057,570.131,0.0
49171.0,STARLINK-3107,PAYLOAD,2023-02-17 19:57:25,14.98319136,0.0002787,70.0009,227.9198,268.9305,91.1534,-4.746e-05,-6.59e-06,0.0,0 STARLINK-3107,1 49171U 21082AT  23048.83154524 -.00000659  00000-0 -47460-4 0  9991,2 49171  70.0009 227.9198 0002787 268.9305  91.1534 14.98319136 79997,6950.226,96.108,574.029,570.154,0.0
49171.0,STARLINK-3107,PAYLOAD,2023-02-18 11:58:45,14.98325313,0.0002972,70.0011,226.2369,268.1446,91.9372,9.4114e-05,1.03e-05,0.0,0 STARLINK-3107,1 49171U 21082AT  23049.49914205  .00001030  00000-0  94114-4 0  9994,2 49171  70.0011 226.2369 0002972 268.1446  91.9372 14.98325313 80091,6950.207,96.107,574.138,570.007,0.0
49171.0,STARLINK-3107,PAYLOAD,2023-02-18 21:35:33,14.98344596,0.0003173,70.0011,225.2265,269.228,90.8515,-0.00010717,-1.372e-05,0.0,0 STARLINK-3107,1 49171U 21082AT  23049.89969378 -.00001372  00000-0 -10717-3 0  9996,2 49171  70.0011 225.2265 0003173 269.2280  90.8515 14.98344596 80155,6950.148,96.106,574.218,569.807,0.0
49171.0,STARLINK-3107,PAYLOAD,2023-02-19 13:36:54,14.983336,0.0002803,70.0014,223.5434,266.6702,93.4137,0.00030614,3.562e-05,0.0,0 STARLINK-3107,1 49171U 21082AT  23050.56729841  .00003562  00000-0  30614-3 0  9990,2 49171  70.0014 223.5434 0002803 266.6702  93.4137 14.98333600 80250,6950.182,96.107,573.995,570.099,0.0
49171.0,STARLINK-3107,PAYLOAD,2023-02-19 21:37:34,14.98340538,0.0002803,70.0014,222.7017,266.622,93.4618,0.00038684,4.527e-05,0.0,0 STARLINK-3107,1 49171U 21082AT  23050.90109599  .00004527  00000-0  38684-3 0  9997,2 49171  70.0014 222.7017 0002803 266.6220  93.4618 14.98340538 80301,6950.16,96.106,573.973,570.077,0.0
